STARLINK-36746          
1 67733U 26026N   26068.72037892  .00107174  00000+0  19411-2 0  9999
2 67733  97.2846 123.0634 0000916  71.5867 288.5483 15.49255360  4117
STARLINK-36749          
1 67734U 26026P   26068.83334490  .00022607  00000+0  41653-3 0  9997
2 67734  97.2850 123.3421 0001612  87.8706 203.6827 15.49162110  5331
STARLINK-36691          
1 67735U 26026Q   26068.83334490 -.01955961  00000+0 -40372-1 0  9994
2 67735  97.2847 123.4339 0001963  69.8185  72.9421 15.49015016  5471
STARLINK-36317          
1 67736U 26026R   26068.83334490 -.01937504  00000+0 -39822-1 0  9996
2 67736  97.2852 123.4272 0001632  65.4720  60.9577 15.49107308  5334
STARLINK-36330          
1 67737U 26026S   26068.83334490 -.01844927  00000+0 -38023-1 0  9995
2 67737  97.2847 123.4384 0001827  76.5981  75.0687 15.49418062  5332
STARLINK-36327          
1 67738U 26026T   26068.83334490 -.01945907  00000+0 -39599-1 0  9995
2 67738  97.2844 123.4452 0001933  62.2570 105.2550 15.49400287  5335
STARLINK-36329          
1 67739U 26026U   26068.83334490 -.01944584  00000+0 -38147-1 0  9994
2 67739  97.2843 123.4773 0001991  76.5842 166.3792 15.50431948  5331
STARLINK-36737          
1 67740U 26026V   26068.83334490 -.01949394  00000+0 -39460-1 0  9999
2 67740  97.2844 123.4507 0001858  71.0270 109.3729 15.49556818  5335
STARLINK-36740          
1 67741U 26026W   26068.83334490  .00047268  00000+0  86634-3 0  9993
2 67741  97.2853 123.4131 0001618  87.1471   7.1931 15.49162670  5333
STARLINK-36693          
1 67742U 26026X   26068.83334490  .00007352  00000+0  13682-3 0  9997
2 67742  97.2854 123.4099 0000829 104.7918 345.2709 15.49165945  5475
STARLINK-36717          
1 67743U 26026Y   26068.83334490  .00006411  00000+0  11945-3 0  9993
2 67743  97.2847 123.4420 0001559  88.2972  74.3019 15.49186657  5470
STARLINK-36692          
1 67744U 26026Z   26068.83334490  .00009195  00000+0  17061-3 0  9991
2 67744  97.2851 123.4223 0001004  91.2070  30.4620 15.49174300  5333
