CCSDS_OMM_VERS = 2.0
CREATION_DATE  = 
ORIGINATOR     = 

OBJECT_NAME    = STARLINK-36746
OBJECT_ID      = 2026-026N
CENTER_NAME    = EARTH
REF_FRAME      = TEME
TIME_SYSTEM    = UTC
MEAN_ELEMENT_THEORY = SGP/SGP4

EPOCH          = 2026-03-09T17:17:20.738688
MEAN_MOTION    = 15.49255360
ECCENTRICITY   = .0000916
INCLINATION    = 97.2846
RA_OF_ASC_NODE = 123.0634
ARG_OF_PERICENTER = 71.5867
MEAN_ANOMALY   = 288.5483

EPHEMERIS_TYPE = 0
CLASSIFICATION_TYPE = U
NORAD_CAT_ID   = 67733
ELEMENT_SET_NO = 999
REV_AT_EPOCH   = 411
BSTAR          = .19411E-2
MEAN_MOTION_DOT = .107174E-2
MEAN_MOTION_DDOT = 0

CCSDS_OMM_VERS = 2.0
CREATION_DATE  = 
ORIGINATOR     = 

OBJECT_NAME    = STARLINK-36749
OBJECT_ID      = 2026-026P
CENTER_NAME    = EARTH
REF_FRAME      = TEME
TIME_SYSTEM    = UTC
MEAN_ELEMENT_THEORY = SGP/SGP4

EPOCH          = 2026-03-09T20:00:00.999360
MEAN_MOTION    = 15.49162110
ECCENTRICITY   = .0001612
INCLINATION    = 97.2850
RA_OF_ASC_NODE = 123.3421
ARG_OF_PERICENTER = 87.8706
MEAN_ANOMALY   = 203.6827

EPHEMERIS_TYPE = 0
CLASSIFICATION_TYPE = U
NORAD_CAT_ID   = 67734
ELEMENT_SET_NO = 999
REV_AT_EPOCH   = 533
BSTAR          = .41653E-3
MEAN_MOTION_DOT = .22607E-3
MEAN_MOTION_DDOT = 0

CCSDS_OMM_VERS = 2.0
CREATION_DATE  = 
ORIGINATOR     = 

OBJECT_NAME    = STARLINK-36691
OBJECT_ID      = 2026-026Q
CENTER_NAME    = EARTH
REF_FRAME      = TEME
TIME_SYSTEM    = UTC
MEAN_ELEMENT_THEORY = SGP/SGP4

EPOCH          = 2026-03-09T20:00:00.999360
MEAN_MOTION    = 15.49015016
ECCENTRICITY   = .0001963
INCLINATION    = 97.2847
RA_OF_ASC_NODE = 123.4339
ARG_OF_PERICENTER = 69.8185
MEAN_ANOMALY   = 72.9421

EPHEMERIS_TYPE = 0
CLASSIFICATION_TYPE = U
NORAD_CAT_ID   = 67735
ELEMENT_SET_NO = 999
REV_AT_EPOCH   = 547
BSTAR          = -.40372E-1
MEAN_MOTION_DOT = -.1955961E-1
MEAN_MOTION_DDOT = 0

CCSDS_OMM_VERS = 2.0
CREATION_DATE  = 
ORIGINATOR     = 

OBJECT_NAME    = STARLINK-36317
OBJECT_ID      = 2026-026R
CENTER_NAME    = EARTH
REF_FRAME      = TEME
TIME_SYSTEM    = UTC
MEAN_ELEMENT_THEORY = SGP/SGP4

EPOCH          = 2026-03-09T20:00:00.999360
MEAN_MOTION    = 15.49107308
ECCENTRICITY   = .0001632
INCLINATION    = 97.2852
RA_OF_ASC_NODE = 123.4272
ARG_OF_PERICENTER = 65.4720
MEAN_ANOMALY   = 60.9577

EPHEMERIS_TYPE = 0
CLASSIFICATION_TYPE = U
NORAD_CAT_ID   = 67736
ELEMENT_SET_NO = 999
REV_AT_EPOCH   = 533
BSTAR          = -.39822E-1
MEAN_MOTION_DOT = -.1937504E-1
MEAN_MOTION_DDOT = 0

CCSDS_OMM_VERS = 2.0
CREATION_DATE  = 
ORIGINATOR     = 

OBJECT_NAME    = STARLINK-36330
OBJECT_ID      = 2026-026S
CENTER_NAME    = EARTH
REF_FRAME      = TEME
TIME_SYSTEM    = UTC
MEAN_ELEMENT_THEORY = SGP/SGP4

EPOCH          = 2026-03-09T20:00:00.999360
MEAN_MOTION    = 15.49418062
ECCENTRICITY   = .0001827
INCLINATION    = 97.2847
RA_OF_ASC_NODE = 123.4384
ARG_OF_PERICENTER = 76.5981
MEAN_ANOMALY   = 75.0687

EPHEMERIS_TYPE = 0
CLASSIFICATION_TYPE = U
NORAD_CAT_ID   = 67737
ELEMENT_SET_NO = 999
REV_AT_EPOCH   = 533
BSTAR          = -.38023E-1
MEAN_MOTION_DOT = -.1844927E-1
MEAN_MOTION_DDOT = 0

CCSDS_OMM_VERS = 2.0
CREATION_DATE  = 
ORIGINATOR     = 

OBJECT_NAME    = STARLINK-36327
OBJECT_ID      = 2026-026T
CENTER_NAME    = EARTH
REF_FRAME      = TEME
TIME_SYSTEM    = UTC
MEAN_ELEMENT_THEORY = SGP/SGP4

EPOCH          = 2026-03-09T20:00:00.999360
MEAN_MOTION    = 15.49400287
ECCENTRICITY   = .0001933
INCLINATION    = 97.2844
RA_OF_ASC_NODE = 123.4452
ARG_OF_PERICENTER = 62.2570
MEAN_ANOMALY   = 105.2550

EPHEMERIS_TYPE = 0
CLASSIFICATION_TYPE = U
NORAD_CAT_ID   = 67738
ELEMENT_SET_NO = 999
REV_AT_EPOCH   = 533
BSTAR          = -.39599E-1
MEAN_MOTION_DOT = -.1945907E-1
MEAN_MOTION_DDOT = 0

CCSDS_OMM_VERS = 2.0
CREATION_DATE  = 
ORIGINATOR     = 

OBJECT_NAME    = STARLINK-36329
OBJECT_ID      = 2026-026U
CENTER_NAME    = EARTH
REF_FRAME      = TEME
TIME_SYSTEM    = UTC
MEAN_ELEMENT_THEORY = SGP/SGP4

EPOCH          = 2026-03-09T20:00:00.999360
MEAN_MOTION    = 15.50431948
ECCENTRICITY   = .0001991
INCLINATION    = 97.2843
RA_OF_ASC_NODE = 123.4773
ARG_OF_PERICENTER = 76.5842
MEAN_ANOMALY   = 166.3792

EPHEMERIS_TYPE = 0
CLASSIFICATION_TYPE = U
NORAD_CAT_ID   = 67739
ELEMENT_SET_NO = 999
REV_AT_EPOCH   = 533
BSTAR          = -.38147E-1
MEAN_MOTION_DOT = -.1944584E-1
MEAN_MOTION_DDOT = 0

CCSDS_OMM_VERS = 2.0
CREATION_DATE  = 
ORIGINATOR     = 

OBJECT_NAME    = STARLINK-36737
OBJECT_ID      = 2026-026V
CENTER_NAME    = EARTH
REF_FRAME      = TEME
TIME_SYSTEM    = UTC
MEAN_ELEMENT_THEORY = SGP/SGP4

EPOCH          = 2026-03-09T20:00:00.999360
MEAN_MOTION    = 15.49556818
ECCENTRICITY   = .0001858
INCLINATION    = 97.2844
RA_OF_ASC_NODE = 123.4507
ARG_OF_PERICENTER = 71.0270
MEAN_ANOMALY   = 109.3729

EPHEMERIS_TYPE = 0
CLASSIFICATION_TYPE = U
NORAD_CAT_ID   = 67740
ELEMENT_SET_NO = 999
REV_AT_EPOCH   = 533
BSTAR          = -.3946E-1
MEAN_MOTION_DOT = -.1949394E-1
MEAN_MOTION_DDOT = 0

CCSDS_OMM_VERS = 2.0
CREATION_DATE  = 
ORIGINATOR     = 

OBJECT_NAME    = STARLINK-36740
OBJECT_ID      = 2026-026W
CENTER_NAME    = EARTH
REF_FRAME      = TEME
TIME_SYSTEM    = UTC
MEAN_ELEMENT_THEORY = SGP/SGP4

EPOCH          = 2026-03-09T20:00:00.999360
MEAN_MOTION    = 15.49162670
ECCENTRICITY   = .0001618
INCLINATION    = 97.2853
RA_OF_ASC_NODE = 123.4131
ARG_OF_PERICENTER = 87.1471
MEAN_ANOMALY   = 7.1931

EPHEMERIS_TYPE = 0
CLASSIFICATION_TYPE = U
NORAD_CAT_ID   = 67741
ELEMENT_SET_NO = 999
REV_AT_EPOCH   = 533
BSTAR          = .86634E-3
MEAN_MOTION_DOT = .47268E-3
MEAN_MOTION_DDOT = 0

CCSDS_OMM_VERS = 2.0
CREATION_DATE  = 
ORIGINATOR     = 

OBJECT_NAME    = STARLINK-36693
OBJECT_ID      = 2026-026X
CENTER_NAME    = EARTH
REF_FRAME      = TEME
TIME_SYSTEM    = UTC
MEAN_ELEMENT_THEORY = SGP/SGP4

EPOCH          = 2026-03-09T20:00:00.999360
MEAN_MOTION    = 15.49165945
ECCENTRICITY   = .0000829
INCLINATION    = 97.2854
RA_OF_ASC_NODE = 123.4099
ARG_OF_PERICENTER = 104.7918
MEAN_ANOMALY   = 345.2709

EPHEMERIS_TYPE = 0
CLASSIFICATION_TYPE = U
NORAD_CAT_ID   = 67742
ELEMENT_SET_NO = 999
REV_AT_EPOCH   = 547
BSTAR          = .13682E-3
MEAN_MOTION_DOT = .7352E-4
MEAN_MOTION_DDOT = 0

CCSDS_OMM_VERS = 2.0
CREATION_DATE  = 
ORIGINATOR     = 

OBJECT_NAME    = STARLINK-36717
OBJECT_ID      = 2026-026Y
CENTER_NAME    = EARTH
REF_FRAME      = TEME
TIME_SYSTEM    = UTC
MEAN_ELEMENT_THEORY = SGP/SGP4

EPOCH          = 2026-03-09T20:00:00.999360
MEAN_MOTION    = 15.49186657
ECCENTRICITY   = .0001559
INCLINATION    = 97.2847
RA_OF_ASC_NODE = 123.4420
ARG_OF_PERICENTER = 88.2972
MEAN_ANOMALY   = 74.3019

EPHEMERIS_TYPE = 0
CLASSIFICATION_TYPE = U
NORAD_CAT_ID   = 67743
ELEMENT_SET_NO = 999
REV_AT_EPOCH   = 547
BSTAR          = .11945E-3
MEAN_MOTION_DOT = .6411E-4
MEAN_MOTION_DDOT = 0

CCSDS_OMM_VERS = 2.0
CREATION_DATE  = 
ORIGINATOR     = 

OBJECT_NAME    = STARLINK-36692
OBJECT_ID      = 2026-026Z
CENTER_NAME    = EARTH
REF_FRAME      = TEME
TIME_SYSTEM    = UTC
MEAN_ELEMENT_THEORY = SGP/SGP4

EPOCH          = 2026-03-09T20:00:00.999360
MEAN_MOTION    = 15.49174300
ECCENTRICITY   = .0001004
INCLINATION    = 97.2851
RA_OF_ASC_NODE = 123.4223
ARG_OF_PERICENTER = 91.2070
MEAN_ANOMALY   = 30.4620

EPHEMERIS_TYPE = 0
CLASSIFICATION_TYPE = U
NORAD_CAT_ID   = 67744
ELEMENT_SET_NO = 999
REV_AT_EPOCH   = 533
BSTAR          = .17061E-3
MEAN_MOTION_DOT = .9195E-4
MEAN_MOTION_DDOT = 0

